{"type":"FeatureCollection", "features": [
{"type":"Feature","geometry":{"type":"Polygon","coordinates":[[[-66.876,1.253],[-67.303,3.318],[-67.823,4.504],[-67.341,6.095],[-69.389,6.1],[-70.093,6.96],[-71.96,6.992],[-72.789,9.085],[-73.305,9.152],[-72.905,10.45],[-71.974,11.609],[-71.332,11.776],[-71.754,12.437],[-73.415,11.227],[-74.197,11.31],[-75.48,10.619],[-75.675,9.443],[-76.837,8.639],[-77.353,8.671],[-77.243,7.935],[-77.882,7.224],[-77.477,6.691],[-77.533,5.583],[-77.128,3.85],[-77.932,2.697],[-78.428,2.63],[-78.855,1.381],[-77.425,0.396],[-76.292,0.416],[-75.373,-0.152],[-75.107,-0.057],[-73.66,-1.26],[-73.07,-2.309],[-70.813,-2.257],[-70.048,-2.725],[-70.394,-3.767],[-69.894,-4.298],[-69.444,-1.556],[-69.577,-0.55],[-70.021,-0.185],[-69.817,1.715],[-67.869,1.692],[-66.876,1.253]]]},"properties":{"name":"Colombia"}}
]}